OBJECT_NAME,OBJECT_ID,EPOCH,MEAN_MOTION,ECCENTRICITY,INCLINATION,RA_OF_ASC_NODE,ARG_OF_PERICENTER,MEAN_ANOMALY,EPHEMERIS_TYPE,CLASSIFICATION_TYPE,NORAD_CAT_ID,ELEMENT_SET_NO,REV_AT_EPOCH,BSTAR,MEAN_MOTION_DOT,MEAN_MOTION_DDOT
STARLINK-37582,2026-123L,2026-06-25T11:20:21.685344,15.75306952,.00012308,53.1570,200.4995,126.1507,233.9627,0,U,69363,999,334,.12488612E-2,.195873E-2,0
STARLINK-37309,2026-123M,2026-06-25T11:39:50.164992,15.75309218,.00015405,53.1589,199.8495,71.8403,288.2785,0,U,69364,999,335,.13530497E-2,.212716E-2,0
STARLINK-37436,2026-123N,2026-06-25T11:24:51.079680,15.80984447,.00009801,53.1574,199.7795,118.3458,241.7663,0,U,69365,999,335,.12415124E-2,.252945E-2,0
STARLINK-37581,2026-123P,2026-06-25T11:30:16.067232,15.80923948,.00008884,53.1572,199.8049,115.7731,244.3383,0,U,69366,999,335,.73289518E-3,.146779E-2,0
STARLINK-37683,2026-123Q,2026-06-25T12:05:30.529248,15.75290775,.00011107,53.1577,199.9668,127.4434,232.6688,0,U,69367,999,335,.87448722E-3,.135889E-2,0
STARLINK-37687,2026-123R,2026-06-25T11:18:25.868736,15.80915506,.00010265,53.1576,199.7493,93.9594,266.1546,0,U,69368,999,335,.63833271E-3,.127411E-2,0
STARLINK-37631,2026-123S,2026-06-25T11:19:34.316544,15.80929273,.00012951,53.1572,199.7542,43.0134,317.0990,0,U,69369,999,335,.86150649E-3,.173237E-2,0
STARLINK-37673,2026-123T,2026-06-25T11:46:21.997632,15.75288628,.00007534,53.1587,199.8787,102.9284,257.1820,0,U,69370,999,335,.900186E-3,.139956E-2,0
STARLINK-37645,2026-123U,2026-06-25T12:58:06.969216,15.75324168,.00009909,53.1577,199.4715,146.0564,214.0520,0,U,69371,999,336,.98715913E-3,.154037E-2,0
STARLINK-37688,2026-123V,2026-06-25T14:00:01.999872,15.80853711,.00011851,53.1566,199.1823,68.0479,213.0547,0,U,69372,999,456,.3296453E-5,-.49E-6,0
STARLINK-37685,2026-123W,2026-06-25T11:17:12.981696,15.80923661,.00013331,53.1568,199.7414,72.1889,287.9280,0,U,69373,999,335,.79196658E-3,.158889E-2,0
STARLINK-37632,2026-123X,2026-06-25T11:16:09.075936,15.80931514,.00015555,53.1565,199.7360,57.6796,302.4377,0,U,69374,999,335,.88454228E-3,.178007E-2,0
STARLINK-37454,2026-123Y,2026-06-25T11:14:34.018656,15.80939455,.00009456,53.1569,199.7288,105.1442,254.9685,0,U,69375,999,335,.69751507E-3,.139643E-2,0
STARLINK-37485,2026-123Z,2026-06-25T11:19:45.253056,15.75277027,.00010637,53.1570,199.7524,194.9824,165.1165,0,U,69376,999,335,.65871338E-3,.101724E-2,0
STARLINK-37439,2026-123AA,2026-06-25T11:03:15.172128,15.80944660,.00012271,53.1562,199.6743,98.9299,261.1863,0,U,69377,999,335,.98667132E-3,.199254E-2,0
STARLINK-37376,2026-123AB,2026-06-25T11:45:54.016992,15.75317024,.00013013,53.1593,199.8733,111.3925,248.7234,0,U,69378,999,335,.1311047E-2,.205997E-2,0
STARLINK-37383,2026-123AC,2026-06-25T12:29:11.890464,15.80977944,.00004391,53.1566,199.3326,132.4446,227.6614,0,U,69379,999,336,.11994703E-2,.244034E-2,0
STARLINK-37411,2026-123AD,2026-06-25T14:07:16.562496,15.80954879,.00010453,53.1566,199.0501,121.5992,238.5133,0,U,69380,999,337,.84336065E-3,.169703E-2,0
STARLINK-37427,2026-123AE,2026-06-25T12:30:19.834560,15.80989326,.00009501,53.1564,199.3382,134.5479,225.5621,0,U,69381,999,336,.14444895E-2,.295972E-2,0
QIANFAN-165,2026-124A,2026-06-25T12:35:43.082880,14.16013661,.00034186,88.9984,1.0975,109.6861,250.4695,0,U,69382,999,299,.53990123E-4,.121E-5,0
QIANFAN-166,2026-124B,2026-06-25T14:02:07.166688,14.17060879,.00029618,88.9985,1.0881,102.9887,257.1632,0,U,69383,999,300,.56075954E-4,.127E-5,0
QIANFAN-167,2026-124C,2026-06-25T12:25:12.374112,14.16527211,.00028756,88.9984,1.0963,143.1548,216.9838,0,U,69384,999,299,.53407904E-4,.121E-5,0
QIANFAN-168,2026-124D,2026-06-25T12:08:27.538656,14.17874137,.00037442,88.9984,1.0947,119.5092,240.6471,0,U,69385,999,299,.51710494E-4,.12E-5,0
QIANFAN-169,2026-124E,2026-06-25T13:43:08.565024,14.18287845,.00040286,88.9984,1.0859,134.5628,225.5891,0,U,69386,999,300,.52296306E-4,.122E-5,0
QIANFAN-170,2026-124F,2026-06-25T13:31:46.577856,14.19184625,.00036254,88.9984,1.0847,115.1204,245.0363,0,U,69387,999,300,.45069053E-4,.109E-5,0
QIANFAN-171,2026-124G,2026-06-25T13:20:02.030784,14.20068693,.00030222,88.9984,1.0835,156.1160,204.0170,0,U,69388,999,300,.4568307E-4,.112E-5,0
QIANFAN-172,2026-124H,2026-06-25T13:25:19.009056,14.19639462,.00032298,88.9984,1.0840,136.7889,223.3555,0,U,69389,999,300,.48959152E-4,.118E-5,0
QIANFAN-173,2026-124J,2026-06-25T13:14:24.373536,14.20510793,.00034755,88.9984,1.0830,128.1539,231.9965,0,U,69390,999,300,.46823692E-4,.115E-5,0
QIANFAN-174,2026-124K,2026-06-25T13:06:55.969632,14.20879418,.00037104,88.9984,1.0821,134.0148,226.1349,0,U,69391,999,300,.56152671E-4,.136E-5,0
QIANFAN-175,2026-124L,2026-06-25T13:02:32.815968,14.21340861,.00043085,88.9984,1.0817,147.9848,212.1605,0,U,69392,999,300,.53603621E-4,.131E-5,0
