STARLINK-37582          
1 69363U 26123L   26176.47247321  .00195873  00000+0  12489-2 0  9991
2 69363  53.1570 200.4995 0001230 126.1507 233.9627 15.75306952  3342
STARLINK-37309          
1 69364U 26123M   26176.48599728  .00212716  00000+0  13530-2 0  9998
2 69364  53.1589 199.8495 0001540  71.8403 288.2785 15.75309218  3351
STARLINK-37436          
1 69365U 26123N   26176.47559120  .00252945  00000+0  12415-2 0  9999
2 69365  53.1574 199.7795 0000980 118.3458 241.7663 15.80984447  3350
STARLINK-37581          
1 69366U 26123P   26176.47935263  .00146779  00000+0  73290-3 0  9992
2 69366  53.1572 199.8049 0000888 115.7731 244.3383 15.80923948  3351
STARLINK-37683          
1 69367U 26123Q   26176.50382557  .00135889  00000+0  87449-3 0  9990
2 69367  53.1577 199.9668 0001110 127.4434 232.6688 15.75290775  3351
STARLINK-37687          
1 69368U 26123R   26176.47113274  .00127411  00000+0  63833-3 0  9998
2 69368  53.1576 199.7493 0001026  93.9594 266.1546 15.80915506  3352
STARLINK-37631          
1 69369U 26123S   26176.47192496  .00173237  00000+0  86151-3 0  9997
2 69369  53.1572 199.7542 0001295  43.0134 317.0990 15.80929273  3353
STARLINK-37673          
1 69370U 26123T   26176.49053238  .00139956  00000+0  90019-3 0  9999
2 69370  53.1587 199.8787 0000753 102.9284 257.1820 15.75288628  3354
STARLINK-37645          
1 69371U 26123U   26176.54035844  .00154037  00000+0  98716-3 0  9998
2 69371  53.1577 199.4715 0000990 146.0564 214.0520 15.75324168  3364
STARLINK-37688          
1 69372U 26123V   26176.58335648 -.00000049  00000+0  32965-5 0  9998
2 69372  53.1566 199.1823 0001185  68.0479 213.0547 15.80853711  4563
STARLINK-37685          
1 69373U 26123W   26176.47028914  .00158889  00000+0  79197-3 0  9993
2 69373  53.1568 199.7414 0001333  72.1889 287.9280 15.80923661  3356
STARLINK-37632          
1 69374U 26123X   26176.46954949  .00178007  00000+0  88454-3 0  9999
2 69374  53.1565 199.7360 0001555  57.6796 302.4377 15.80931514  3351
STARLINK-37454          
1 69375U 26123Y   26176.46844929  .00139643  00000+0  69752-3 0  9999
2 69375  53.1569 199.7288 0000945 105.1442 254.9685 15.80939455  3359
STARLINK-37485          
1 69376U 26123Z   26176.47205154  .00101724  00000+0  65871-3 0  9999
2 69376  53.1570 199.7524 0001063 194.9824 165.1165 15.75277027  3357
STARLINK-37439          
1 69377U 26123AA  26176.46059227  .00199254  00000+0  98667-3 0  9991
2 69377  53.1562 199.6743 0001227  98.9299 261.1863 15.80944660  3354
STARLINK-37376          
1 69378U 26123AB  26176.49020853  .00205997  00000+0  13110-2 0  9999
2 69378  53.1593 199.8733 0001301 111.3925 248.7234 15.75317024  3354
STARLINK-37383          
1 69379U 26123AC  26176.52027651  .00244034  00000+0  11995-2 0  9991
2 69379  53.1566 199.3326 0000439 132.4446 227.6614 15.80977944  3369
STARLINK-37411          
1 69380U 26123AD  26176.58838614  .00169703  00000+0  84336-3 0  9997
2 69380  53.1566 199.0501 0001045 121.5992 238.5133 15.80954879  3372
STARLINK-37427          
1 69381U 26123AE  26176.52106290  .00295972  00000+0  14445-2 0  9991
2 69381  53.1564 199.3382 0000950 134.5479 225.5621 15.80989326  3361
QIANFAN-165             
1 69382U 26124A   26176.52480420  .00000121  00000+0  53990-4 0  9993
2 69382  88.9984   1.0975 0003418 109.6861 250.4695 14.16013661  2995
QIANFAN-166             
1 69383U 26124B   26176.58480517  .00000127  00000+0  56076-4 0  9991
2 69383  88.9985   1.0881 0002961 102.9887 257.1632 14.17060879  3001
QIANFAN-167             
1 69384U 26124C   26176.51750433  .00000121  00000+0  53408-4 0  9992
2 69384  88.9984   1.0963 0002875 143.1548 216.9838 14.16527211  2992
QIANFAN-168             
1 69385U 26124D   26176.50587429  .00000120  00000+0  51710-4 0  9998
2 69385  88.9984   1.0947 0003744 119.5092 240.6471 14.17874137  2992
QIANFAN-169             
1 69386U 26124E   26176.57162691  .00000122  00000+0  52296-4 0  9998
2 69386  88.9984   1.0859 0004028 134.5628 225.5891 14.18287845  3009
QIANFAN-170             
1 69387U 26124F   26176.56373354  .00000109  00000+0  45069-4 0  9993
2 69387  88.9984   1.0847 0003625 115.1204 245.0363 14.19184625  3008
QIANFAN-171             
1 69388U 26124G   26176.55557906  .00000112  00000+0  45683-4 0  9996
2 69388  88.9984   1.0835 0003022 156.1160 204.0170 14.20068693  3002
QIANFAN-172             
1 69389U 26124H   26176.55924779  .00000118  00000+0  48959-4 0  9998
2 69389  88.9984   1.0840 0003229 136.7889 223.3555 14.19639462  3007
QIANFAN-173             
1 69390U 26124J   26176.55167099  .00000115  00000+0  46824-4 0  9990
2 69390  88.9984   1.0830 0003475 128.1539 231.9965 14.20510793  3005
QIANFAN-174             
1 69391U 26124K   26176.54648113  .00000136  00000+0  56153-4 0  9990
2 69391  88.9984   1.0821 0003710 134.0148 226.1349 14.20879418  3004
QIANFAN-175             
1 69392U 26124L   26176.54343537  .00000131  00000+0  53604-4 0  9996
2 69392  88.9984   1.0817 0004308 147.9848 212.1605 14.21340861  3000
